SMDC ONE 1.2            
1 38759U 12048B   26068.59359052  .00013943  00000+0  57078-3 0  9996
2 38759  64.6579 143.2061 0110458 207.1808 152.3511 15.19069434101016
STARLINK-31066          
1 58676U 23211K   26067.46545561  .00009744  00000+0  37151-3 0  9991
2 58676  43.0016 237.9691 0005727 306.2936  53.7386 15.26815036121840
